COSMOS 1892             
1 18421U 87088A   20299.33166954  .00000953  00000-0  46166-4 0  9990
2 18421  82.4984 145.0081 0014527 340.8531  19.2154 15.17266692804240
SL-14 R/B               
1 18749U 88001B   20299.57566066  .00000077  00000-0  65220-5 0  9993
2 18749  82.5156 235.6865 0017563 226.3468 306.8251 14.83230557751158
COSMOS 1933             
1 18958U 88020A   20299.55094657 -.00000061  00000-0 -65666-5 0  9995
2 18958  82.5316 359.9638 0013053  72.7569 287.5084 15.03779922754633
SL-3 R/B                
1 19046U 88032B   20299.57202484  .00000047  00000-0  78065-5 0  9997
2 19046  97.4000 314.8404 0039773 121.1092 239.4046 15.02778064756502
SL-16 R/B               
1 19120U 88039B   20299.57962443 -.00000108  00000-0 -28632-4 0  9999
2 19120  71.0144 253.5577 0019689 109.8627 250.4622 14.19206109680112
COSMOS 1953             
1 19210U 88050A   20299.47493006  .00000097  00000-0  46196-5 0  9996
2 19210  82.5135 283.6063 0014223  42.1851 318.0467 15.06046937741237
SL-8 R/B                
1 19257U 88053B   20299.51146257  .00000149  00000-0  58438-4 0  9997
2 19257  74.0465 121.8438 0019535  67.6128 356.0838 14.37488088694690
COSMOS 1975             
1 19573U 88093A   20299.54458494  .00000140  00000-0  77861-5 0  9997
2 19573  82.5210 238.1550 0015920  81.1629 279.1399 15.04953628723075
SL-14 R/B               
1 19574U 88093B   20299.48347079  .00000112  00000-0  10699-4 0  9991
2 19574  82.5312  78.4542 0022485  36.6638  25.5047 14.83341204710148
SL-16 R/B               
1 19650U 88102B   20299.48603035 -.00000257  00000-0 -10635-3 0  9995
2 19650  70.9994 316.4776 0012059 121.4097 238.8207 14.15795064649287
INTERCOSMOS 24          
1 20261U 89080A   20299.48878380  .00000149  00000-0  36122-4 0  9996
2 20261  82.5998 296.1160 1203306 147.7322 220.3554 12.56138617419915
SL-14 R/B               
1 20262U 89080C   20299.43252190  .00000055  00000-0  13748-4 0  9992
2 20262  82.5962 350.6853 1236734 340.8395  14.9796 12.48946931415210
DELTA 2 R/B(1)          
1 20303U 89085B   20299.39787391  .00003287  00000-0  10530-3 0  9999
2 20303  35.6362 273.9066 0095073 252.3226 106.7103 15.27736664687943
DELTA 1 R/B             
1 20323U 89089B   20299.58418110  .00000083  00000-0  30510-4 0  9998
2 20323  97.1093  64.7292 0071765 180.4219 179.6930 14.48364356611706
ARIANE 40 R/B           
1 20443U 90005H   20299.41224987 -.00000003  00000-0  13769-4 0  9990
2 20443  98.5620   0.9303 0009570 320.6224  39.4266 14.38101940611054
DELTA 2 R/B(1)          
1 20453U 90008B   20299.46275759  .00001491  00000-0  84409-4 0  9992
2 20453  35.6252 209.5796 0280645 310.1895  47.4562 14.85736182630540
COSMOS 2058             
1 20465U 90010A   20299.30014297  .00000264  00000-0  19934-4 0  9997
2 20465  82.4878 148.4103 0016625 120.4642 239.8226 14.98060401647761
SL-14 R/B               
1 20466U 90010B   20299.43472844  .00000098  00000-0  95193-5 0  9995
2 20466  82.5001 305.1293 0018942 270.6154  89.2889 14.81396032637971
SL-14 R/B               
1 20511U 90018B   20299.41292380  .00000101  00000-0  10259-4 0  9991
2 20511  82.5228 252.0976 0018757  54.6760  64.1000 14.80051639653434
HST                     
1 20580U 90037B   20299.09161354  .00000634  00000-0  27556-4 0  9997
2 20580  28.4689 182.1891 0002787  51.0883  65.2793 15.09456980475569
SL-16 R/B               
1 20625U 90046B   20299.46957485  .00000260  00000-0  15961-3 0  9997
2 20625  70.9978  95.2973 0012902  37.6178 322.5844 14.14661694571001
COSMOS 2084             
1 20663U 90055A   20299.53411865  .00000058  00000-0  23615-4 0  9995
2 20663  62.7940  93.8572 0035627 316.8702  42.9602 14.92126809642761
SL-6 R/B(2)             
1 20666U 90055D   20299.49782627  .00000011  00000-0  19292-4 0  9995
2 20666  62.7875  10.0923 0064400   5.2601 354.9155 14.92374552644176
SL-8 R/B                
1 20775U 90078B   20299.53606542  .00004286  00000-0  20618-3 0  9998
2 20775  82.9232 119.3376 0572329 151.4597 211.9244 14.34832106524397
SL-8 R/B                
1 21088U 91006B   20299.22955440  .00000013  00000-0 -28567-5 0  9996
2 21088  82.9455 188.7389 0023484 125.5337 346.6969 13.77148503494071
OKEAN-3                 
1 21397U 91039A   20299.40575457  .00000307  00000-0  26916-4 0  9991
2 21397  82.5237  53.1631 0019350  94.7474 265.5956 14.92974540571650
COSMOS 2151             
1 21422U 91042A   20299.08377958  .00000198  00000-0  16930-4 0  9997
2 21422  82.5003 159.5390 0014690 154.4388 205.7561 14.92165526591299
SL-14 R/B               
1 21423U 91042B   20299.42535806  .00000085  00000-0  82054-5 0  9990
2 21423  82.4933 255.4159 0017280 188.5369 171.5553 14.79801970562884
ERS-1                   
1 21574U 91050A   20299.48606606  .00000041  00000-0  28530-4 0  9999
2 21574  98.6136 252.9787 0031858 260.4240  99.3347 14.37764050533785
ARIANE 40 R/B           
1 21610U 91050F   20299.45990787  .00000014  00000-0  18034-4 0  9991
2 21610  98.4532   7.3198 0002569 210.6146 160.5682 14.40917774536425
INTERCOSMOS 25          
1 21819U 91086A   20299.58835275  .00000304  00000-0  59030-4 0  9998
2 21819  82.5916  48.3853 1515727 354.8129   3.8627 12.05148934259969
SL-8 R/B                
1 21876U 92008B   20299.50805755  .00000112  00000-0  99929-4 0  9996
2 21876  82.9231 285.7469 0034040 208.7719 266.7404 13.75665020439759
SL-8 R/B                
1 21938U 92020B   20299.42255081  .00000080  00000-0  67259-4 0  9996
2 21938  82.9313 170.0885 0029702  13.3286 159.7090 13.75279831431536
COSMOS 2219             
1 22219U 92076A   20299.55740572  .00000028  00000-0  39618-4 0  9998
2 22219  71.0602 155.9273 0020082 311.9316  48.0093 14.13656524441204
SL-16 R/B               
1 22220U 92076B   20299.51869380  .00000119  00000-0  84023-4 0  9996
2 22220  71.0018 357.7889 0014003 212.8200 243.4254 14.16459790444425
COSMOS 2221             
1 22236U 92080A   20299.48298475  .00000207  00000-0  19901-4 0  9996
2 22236  82.5082 340.7894 0015226 247.9379 112.0221 14.87958486509658
SL-16 R/B               
1 22285U 92093B   20299.58283520  .00000291  00000-0  17449-3 0  9997
2 22285  71.0204 159.5190 0002749  33.6710 326.4586 14.15048703435747
COSMOS 2228             
1 22286U 92094A   20299.48345219  .00000265  00000-0  25942-4 0  9991
2 22286  82.5169 297.1744 0021448  13.6429 346.5364 14.88178246504853
SL-16 R/B               
1 22566U 93016B   20299.47530407  .00000015  00000-0  32450-4 0  9996
2 22566  71.0093  12.8227 0008288  62.3415 297.8548 14.14962977424724
COSMOS 2242             
1 22626U 93024A   20299.54105238  .00000218  00000-0  20997-4 0  9998
2 22626  82.5204 325.3052 0019187  14.0280 346.1466 14.88031850488202
SL-16 R/B               
1 22803U 93059B   20299.37940143  .00000092  00000-0  69985-4 0  9996
2 22803  70.9904 185.4596 0018873 313.0240  46.9301 14.16827759401709
ARIANE 40 R/B           
1 22830U 93061H   20299.52456559 -.00000022  00000-0  88575-5 0  9990
2 22830  98.7501 349.8299 0009936 303.8355  56.1882 14.31457882413433
COSMOS 2278             
1 23087U 94023A   20299.43213643  .00000089  00000-0  72045-4 0  9995
2 23087  71.0543 315.9755 0007491 157.1762 202.9695 14.13819442367564
SL-16 R/B               
1 23088U 94023B   20299.50458181 -.00000074  00000-0 -13829-4 0  9993
2 23088  70.9998 228.1492 0002585 354.8478   5.2617 14.14681425368703
SL-16 R/B               
1 23343U 94074B   20299.33748591  .00000027  00000-0  11092-4 0  9997
2 23343  97.9835 351.0811 0008289  92.5373  26.4846 14.76841527397580
SL-16 R/B               
1 23405U 94077B   20299.61000213 -.00000308  00000-0 -13351-3 0  9995
2 23405  70.9822 156.7969 0005091 266.2556  93.7985 14.15226135338773
ERS-2                   
1 23560U 95021A   20299.49253186  .00001216  00000-0  54941-4 0  9990
2 23560  98.5540 110.9123 0004621  89.6025 270.5738 15.23361793361911
ARIANE 40+ R/B          
1 23561U 95021B   20299.35309971  .00000036  00000-0  26878-4 0  9997
2 23561  98.7105 340.4481 0006241 221.8583 148.8353 14.37987972337467
SL-16 R/B               
1 23705U 95058B   20299.43695694  .00000235  00000-0  14523-3 0  9990
2 23705  71.0224 336.2311 0014307 234.5030 125.4759 14.15138860290366
SL-16 R/B               
1 24298U 96051B   20299.53553023 -.00000101  00000-0 -28588-4 0  9993
2 24298  70.8435 356.3089 0016126 170.1861 189.9577 14.12492036244725
ORBVIEW 2 (SEASTAR)     
1 24883U 97037A   20299.57054484  .00000041  00000-0  30706-4 0  9995
2 24883  98.6230  52.2830 0003413  86.1075 274.0500 14.33576074227350
SL-16 R/B               
1 25400U 98043G   20299.57047519 -.00000006  00000-0  16079-4 0  9999
2 25400  98.6160 233.1406 0009231 321.3613  38.6905 14.25462879159550
SL-16 R/B               
1 25407U 98045B   20299.47997116 -.00000242  00000-0 -98926-4 0  9998
2 25407  71.0121 344.3410 0006043 151.6313 208.5140 14.15828570149481
ISS (ZARYA)             
1 25544U 98067A   20299.61190972  .00001346  00000-0  32230-4 0  9995
2 25544  51.6450  63.1180 0001681  60.4858 113.5765 15.49332687252239
SL-8 R/B                
1 25723U 99022C   20299.26836323  .00040378  00000-0  21944-3 0  9991
2 25723  48.4127   8.7220 0005618 285.0537  74.9796 15.79455076198465
CZ-4B R/B               
1 25732U 99025C   20299.32497275 -.00000025  00000-0  98949-5 0  9997
2 25732  98.9337 328.8911 0037044 198.9608 171.6858 14.17682249110227
OKEAN-O                 
1 25860U 99039A   20299.34036102  .00000070  00000-0  17657-4 0  9999
2 25860  98.2078 320.5582 0001488 113.1186 247.0181 14.76684733144779
SL-16 R/B               
1 25861U 99039B   20299.48596884  .00000044  00000-0  13551-4 0  9993
2 25861  98.2111 304.2274 0016952  99.5861  61.0104 14.78596303146839
DELTA 2 R/B             
1 25876U 99041E   20299.59097979 -.00000037  00000-0  34759-4 0  9991
2 25876  51.7633 156.5996 0531294   3.7332 356.7327 14.04473150 86914
